[{"OBJECT_NAME":"ONEWEB-0238","OBJECT_ID":"2021-045T","EPOCH":"2026-03-02T16:21:17.332704","MEAN_MOTION":13.15548472,"ECCENTRICITY":0.00020428,"INCLINATION":87.8948,"RA_OF_ASC_NODE":280.4363,"ARG_OF_PERICENTER":81.3112,"MEAN_ANOMALY":278.8249,"EPHEMERIS_TYPE":0,"CLASSIFICATION_TYPE":"U","NORAD_CAT_ID":48784,"ELEMENT_SET_NO":999,"REV_AT_EPOCH":23037,"BSTAR":-0.00048246874,"MEAN_MOTION_DOT":-1.69e-6,"MEAN_MOTION_DDOT":0},{"OBJECT_NAME":"ONEWEB-0240","OBJECT_ID":"2021-045U","EPOCH":"2026-03-02T15:02:22.964352","MEAN_MOTION":13.15547846,"ECCENTRICITY":0.0001848,"INCLINATION":87.8958,"RA_OF_ASC_NODE":280.4483,"ARG_OF_PERICENTER":95.9068,"MEAN_ANOMALY":264.2273,"EPHEMERIS_TYPE":0,"CLASSIFICATION_TYPE":"U","NORAD_CAT_ID":48785,"ELEMENT_SET_NO":999,"REV_AT_EPOCH":23039,"BSTAR":-0.00023347,"MEAN_MOTION_DOT":-7.5e-7,"MEAN_MOTION_DDOT":0},{"OBJECT_NAME":"ONEWEB-0246","OBJECT_ID":"2021-045V","EPOCH":"2026-03-02T14:54:22.892256","MEAN_MOTION":13.15547022,"ECCENTRICITY":0.0001471,"INCLINATION":87.8958,"RA_OF_ASC_NODE":280.459,"ARG_OF_PERICENTER":90.1514,"MEAN_ANOMALY":269.9785,"EPHEMERIS_TYPE":0,"CLASSIFICATION_TYPE":"U","NORAD_CAT_ID":48786,"ELEMENT_SET_NO":999,"REV_AT_EPOCH":23026,"BSTAR":-0.00020102,"MEAN_MOTION_DOT":-6.3e-7,"MEAN_MOTION_DDOT":0},{"OBJECT_NAME":"ONEWEB-0210","OBJECT_ID":"2021-045W","EPOCH":"2026-03-02T16:07:23.783520","MEAN_MOTION":13.15546697,"ECCENTRICITY":0.00011267,"INCLINATION":87.8954,"RA_OF_ASC_NODE":280.4458,"ARG_OF_PERICENTER":123.5436,"MEAN_ANOMALY":236.5802,"EPHEMERIS_TYPE":0,"CLASSIFICATION_TYPE":"U","NORAD_CAT_ID":48787,"ELEMENT_SET_NO":999,"REV_AT_EPOCH":23031,"BSTAR":0.00043487096,"MEAN_MOTION_DOT":1.77e-6,"MEAN_MOTION_DDOT":0},{"OBJECT_NAME":"ONEWEB-0214","OBJECT_ID":"2021-045X","EPOCH":"2026-03-02T14:30:25.946208","MEAN_MOTION":13.15547507,"ECCENTRICITY":0.0001193,"INCLINATION":87.8961,"RA_OF_ASC_NODE":280.4549,"ARG_OF_PERICENTER":96.3911,"MEAN_ANOMALY":263.7355,"EPHEMERIS_TYPE":0,"CLASSIFICATION_TYPE":"U","NORAD_CAT_ID":48788,"ELEMENT_SET_NO":999,"REV_AT_EPOCH":23027,"BSTAR":0.00036611,"MEAN_MOTION_DOT":1.51e-6,"MEAN_MOTION_DDOT":0},{"OBJECT_NAME":"ONEWEB-0221","OBJECT_ID":"2021-045Y","EPOCH":"2026-03-02T14:40:41.488320","MEAN_MOTION":13.15547377,"ECCENTRICITY":0.0001654,"INCLINATION":87.8956,"RA_OF_ASC_NODE":280.4637,"ARG_OF_PERICENTER":95.2055,"MEAN_ANOMALY":264.9264,"EPHEMERIS_TYPE":0,"CLASSIFICATION_TYPE":"U","NORAD_CAT_ID":48789,"ELEMENT_SET_NO":999,"REV_AT_EPOCH":23036,"BSTAR":0.00021036,"MEAN_MOTION_DOT":9.2e-7,"MEAN_MOTION_DDOT":0},{"OBJECT_NAME":"ONEWEB-0213","OBJECT_ID":"2021-045Z","EPOCH":"2026-03-02T14:24:43.411680","MEAN_MOTION":13.15548066,"ECCENTRICITY":0.0001496,"INCLINATION":87.8958,"RA_OF_ASC_NODE":280.4697,"ARG_OF_PERICENTER":99.109,"MEAN_ANOMALY":261.021,"EPHEMERIS_TYPE":0,"CLASSIFICATION_TYPE":"U","NORAD_CAT_ID":48790,"ELEMENT_SET_NO":999,"REV_AT_EPOCH":23042,"BSTAR":0.0004546,"MEAN_MOTION_DOT":1.84e-6,"MEAN_MOTION_DDOT":0},{"OBJECT_NAME":"ONEWEB-0212","OBJECT_ID":"2021-045AA","EPOCH":"2026-03-02T15:41:09.407904","MEAN_MOTION":13.15547329,"ECCENTRICITY":0.00016468,"INCLINATION":87.8956,"RA_OF_ASC_NODE":280.4536,"ARG_OF_PERICENTER":87.2824,"MEAN_ANOMALY":272.8495,"EPHEMERIS_TYPE":0,"CLASSIFICATION_TYPE":"U","NORAD_CAT_ID":48791,"ELEMENT_SET_NO":999,"REV_AT_EPOCH":23042,"BSTAR":0.00011844308,"MEAN_MOTION_DOT":5.7e-7,"MEAN_MOTION_DDOT":0},{"OBJECT_NAME":"ONEWEB-0227","OBJECT_ID":"2021-045AB","EPOCH":"2026-03-02T15:40:01.248672","MEAN_MOTION":13.15547046,"ECCENTRICITY":0.00016327,"INCLINATION":87.895,"RA_OF_ASC_NODE":280.4567,"ARG_OF_PERICENTER":91.5539,"MEAN_ANOMALY":268.5778,"EPHEMERIS_TYPE":0,"CLASSIFICATION_TYPE":"U","NORAD_CAT_ID":48792,"ELEMENT_SET_NO":999,"REV_AT_EPOCH":23037,"BSTAR":0.00011511468,"MEAN_MOTION_DOT":5.6e-7,"MEAN_MOTION_DDOT":0},{"OBJECT_NAME":"ONEWEB-0226","OBJECT_ID":"2021-045AC","EPOCH":"2026-03-02T15:30:53.275680","MEAN_MOTION":13.15547642,"ECCENTRICITY":0.0001428,"INCLINATION":87.8946,"RA_OF_ASC_NODE":280.467,"ARG_OF_PERICENTER":99.7844,"MEAN_ANOMALY":260.3447,"EPHEMERIS_TYPE":0,"CLASSIFICATION_TYPE":"U","NORAD_CAT_ID":48793,"ELEMENT_SET_NO":999,"REV_AT_EPOCH":23034,"BSTAR":-1.6794e-5,"MEAN_MOTION_DOT":7.0e-8,"MEAN_MOTION_DDOT":0},{"OBJECT_NAME":"ONEWEB-0224","OBJECT_ID":"2021-045AD","EPOCH":"2026-03-02T16:27:56.187072","MEAN_MOTION":13.15548416,"ECCENTRICITY":0.0002456,"INCLINATION":87.8948,"RA_OF_ASC_NODE":280.4952,"ARG_OF_PERICENTER":95.7102,"MEAN_ANOMALY":264.4309,"EPHEMERIS_TYPE":0,"CLASSIFICATION_TYPE":"U","NORAD_CAT_ID":48794,"ELEMENT_SET_NO":999,"REV_AT_EPOCH":23027,"BSTAR":0.00016079294,"MEAN_MOTION_DOT":7.3e-7,"MEAN_MOTION_DDOT":0},{"OBJECT_NAME":"ONEWEB-0233","OBJECT_ID":"2021-045AE","EPOCH":"2026-03-02T14:45:03.518784","MEAN_MOTION":13.15547591,"ECCENTRICITY":0.0001714,"INCLINATION":87.8944,"RA_OF_ASC_NODE":280.5189,"ARG_OF_PERICENTER":97.4212,"MEAN_ANOMALY":262.7113,"EPHEMERIS_TYPE":0,"CLASSIFICATION_TYPE":"U","NORAD_CAT_ID":48795,"ELEMENT_SET_NO":999,"REV_AT_EPOCH":23028,"BSTAR":0.00016714,"MEAN_MOTION_DOT":7.6e-7,"MEAN_MOTION_DDOT":0},{"OBJECT_NAME":"ONEWEB-0190","OBJECT_ID":"2021-045AF","EPOCH":"2026-03-02T16:16:31.706400","MEAN_MOTION":13.1554789,"ECCENTRICITY":0.00016409,"INCLINATION":87.8945,"RA_OF_ASC_NODE":280.4671,"ARG_OF_PERICENTER":114.4429,"MEAN_ANOMALY":245.6873,"EPHEMERIS_TYPE":0,"CLASSIFICATION_TYPE":"U","NORAD_CAT_ID":48796,"ELEMENT_SET_NO":999,"REV_AT_EPOCH":23036,"BSTAR":0.00043031359,"MEAN_MOTION_DOT":1.75e-6,"MEAN_MOTION_DDOT":0},{"OBJECT_NAME":"ONEWEB-0236","OBJECT_ID":"2021-045AG","EPOCH":"2026-03-02T14:52:05.990592","MEAN_MOTION":13.15547154,"ECCENTRICITY":0.0001656,"INCLINATION":87.8942,"RA_OF_ASC_NODE":280.4901,"ARG_OF_PERICENTER":83.2895,"MEAN_ANOMALY":276.8424,"EPHEMERIS_TYPE":0,"CLASSIFICATION_TYPE":"U","NORAD_CAT_ID":48797,"ELEMENT_SET_NO":999,"REV_AT_EPOCH":23024,"BSTAR":-6.9681e-6,"MEAN_MOTION_DOT":1.0e-7,"MEAN_MOTION_DDOT":0},{"OBJECT_NAME":"ONEWEB-0248","OBJECT_ID":"2021-045AH","EPOCH":"2026-03-02T15:10:22.596672","MEAN_MOTION":13.15546154,"ECCENTRICITY":0.0001961,"INCLINATION":87.8956,"RA_OF_ASC_NODE":280.46,"ARG_OF_PERICENTER":100.9478,"MEAN_ANOMALY":259.1873,"EPHEMERIS_TYPE":0,"CLASSIFICATION_TYPE":"U","NORAD_CAT_ID":48798,"ELEMENT_SET_NO":999,"REV_AT_EPOCH":23040,"BSTAR":0.0020488,"MEAN_MOTION_DOT":7.84e-6,"MEAN_MOTION_DDOT":0},{"OBJECT_NAME":"ONEWEB-0225","OBJECT_ID":"2021-045AJ","EPOCH":"2026-03-02T15:42:17.843616","MEAN_MOTION":13.15547669,"ECCENTRICITY":0.00016534,"INCLINATION":87.8945,"RA_OF_ASC_NODE":280.4722,"ARG_OF_PERICENTER":109.9322,"MEAN_ANOMALY":250.1986,"EPHEMERIS_TYPE":0,"CLASSIFICATION_TYPE":"U","NORAD_CAT_ID":48799,"ELEMENT_SET_NO":999,"REV_AT_EPOCH":23041,"BSTAR":0.00019204488,"MEAN_MOTION_DOT":8.5e-7,"MEAN_MOTION_DDOT":0},{"OBJECT_NAME":"ONEWEB-0215","OBJECT_ID":"2021-045AK","EPOCH":"2026-03-02T14:58:57.395424","MEAN_MOTION":13.15547961,"ECCENTRICITY":0.0001833,"INCLINATION":87.896,"RA_OF_ASC_NODE":280.4501,"ARG_OF_PERICENTER":111.7928,"MEAN_ANOMALY":248.3397,"EPHEMERIS_TYPE":0,"CLASSIFICATION_TYPE":"U","NORAD_CAT_ID":48800,"ELEMENT_SET_NO":999,"REV_AT_EPOCH":23028,"BSTAR":-7.7892e-5,"MEAN_MOTION_DOT":-1.6e-7,"MEAN_MOTION_DDOT":0}]
