ONEWEB-0238             
1 48784U 21045T   26061.68145060 -.00000169  00000+0 -48247-3 0  9993
2 48784  87.8948 280.4363 0002043  81.3112 278.8249 13.15548472230373
ONEWEB-0240             
1 48785U 21045U   26061.62665468 -.00000075  00000+0 -23347-3 0  9997
2 48785  87.8958 280.4483 0001848  95.9068 264.2273 13.15547846230393
ONEWEB-0246             
1 48786U 21045V   26061.62109829 -.00000063  00000+0 -20102-3 0  9995
2 48786  87.8958 280.4590 0001471  90.1514 269.9785 13.15547022230260
ONEWEB-0210             
1 48787U 21045W   26061.67180304  .00000177  00000+0  43487-3 0  9993
2 48787  87.8954 280.4458 0001127 123.5436 236.5802 13.15546697230315
ONEWEB-0214             
1 48788U 21045X   26061.60446697  .00000151  00000+0  36611-3 0  9990
2 48788  87.8961 280.4549 0001193  96.3911 263.7355 13.15547507230274
ONEWEB-0221             
1 48789U 21045Y   26061.61159130  .00000092  00000+0  21036-3 0  9994
2 48789  87.8956 280.4637 0001654  95.2055 264.9264 13.15547377230363
ONEWEB-0213             
1 48790U 21045Z   26061.60050245  .00000184  00000+0  45460-3 0  9991
2 48790  87.8958 280.4697 0001496  99.1090 261.0210 13.15548066230421
ONEWEB-0212             
1 48791U 21045AA  26061.65358110  .00000057  00000+0  11844-3 0  9997
2 48791  87.8956 280.4536 0001647  87.2824 272.8495 13.15547329230429
ONEWEB-0227             
1 48792U 21045AB  26061.65279222  .00000056  00000+0  11511-3 0  9994
2 48792  87.8950 280.4567 0001633  91.5539 268.5778 13.15547046230370
ONEWEB-0226             
1 48793U 21045AC  26061.64644995  .00000007  00000+0 -16794-4 0  9993
2 48793  87.8946 280.4670 0001428  99.7844 260.3447 13.15547642230344
ONEWEB-0224             
1 48794U 21045AD  26061.68606697  .00000073  00000+0  16079-3 0  9992
2 48794  87.8948 280.4952 0002456  95.7102 264.4309 13.15548416230279
ONEWEB-0233             
1 48795U 21045AE  26061.61462406  .00000076  00000+0  16714-3 0  9993
2 48795  87.8944 280.5189 0001714  97.4212 262.7113 13.15547591230284
ONEWEB-0190             
1 48796U 21045AF  26061.67814475  .00000175  00000+0  43031-3 0  9999
2 48796  87.8945 280.4671 0001641 114.4429 245.6873 13.15547890230364
ONEWEB-0236             
1 48797U 21045AG  26061.61951378  .00000010  00000+0 -69681-5 0  9998
2 48797  87.8942 280.4901 0001656  83.2895 276.8424 13.15547154230242
ONEWEB-0248             
1 48798U 21045AH  26061.63220598  .00000784  00000+0  20488-2 0  9990
2 48798  87.8956 280.4600 0001961 100.9478 259.1873 13.15546154230406
ONEWEB-0225             
1 48799U 21045AJ  26061.65437318  .00000085  00000+0  19204-3 0  9992
2 48799  87.8945 280.4722 0001653 109.9322 250.1986 13.15547669230414
ONEWEB-0215             
1 48800U 21045AK  26061.62427541 -.00000016  00000+0 -77892-4 0  9993
2 48800  87.8960 280.4501 0001833 111.7928 248.3397 13.15547961230287
